[{"OBJECT_NAME":"STARLINK-5213","OBJECT_ID":"2022-136AU","EPOCH":"2026-03-09T22:17:07.458720","MEAN_MOTION":15.08823269,"ECCENTRICITY":0.00011669,"INCLINATION":53.2186,"RA_OF_ASC_NODE":332.7986,"ARG_OF_PERICENTER":91.3402,"MEAN_ANOMALY":268.7724,"EPHEMERIS_TYPE":0,"CLASSIFICATION_TYPE":"U","NORAD_CAT_ID":54093,"ELEMENT_SET_NO":999,"REV_AT_EPOCH":18702,"BSTAR":0.00015492281,"MEAN_MOTION_DOT":2.178e-5,"MEAN_MOTION_DDOT":0},{"OBJECT_NAME":"CZ-2D DEB","OBJECT_ID":"2017-060C","EPOCH":"2026-03-09T12:36:22.356864","MEAN_MOTION":15.07716497,"ECCENTRICITY":0.0018685,"INCLINATION":98.2453,"RA_OF_ASC_NODE":267.9231,"ARG_OF_PERICENTER":71.2095,"MEAN_ANOMALY":289.1156,"EPHEMERIS_TYPE":0,"CLASSIFICATION_TYPE":"U","NORAD_CAT_ID":44610,"ELEMENT_SET_NO":999,"REV_AT_EPOCH":45422,"BSTAR":0.00057216024,"MEAN_MOTION_DOT":8.702e-5,"MEAN_MOTION_DDOT":0}]
